{
"type": "FeatureCollection",
"name": "Public Facilities ",
"crs": { "type": "name", "properties": { "name": "urn:ogc:def:crs:OGC:1.3:CRS84" } },
"features": [
{ "type": "Feature", "properties": { "osm_id": 12358180697, "osm_type": "nodes", "opening_hours": null, "landuse": null, "denomination": null, "building": null, "leisure": null, "name": null, "historic": null, "amenity": "toilets", "religion": null }, "geometry": { "type": "Point", "coordinates": [ 55.4114717, 25.1992637 ] } },
{ "type": "Feature", "properties": { "osm_id": 9306400617, "osm_type": "nodes", "opening_hours": null, "landuse": null, "denomination": null, "building": null, "leisure": null, "name": null, "historic": null, "amenity": "toilets", "religion": null }, "geometry": { "type": "Point", "coordinates": [ 55.3650051, 25.2468576 ] } },
{ "type": "Feature", "properties": { "osm_id": 5831276717, "osm_type": "nodes", "opening_hours": null, "landuse": null, "denomination": null, "building": null, "leisure": null, "name": null, "historic": null, "amenity": "toilets", "religion": null }, "geometry": { "type": "Point", "coordinates": [ 55.358302, 25.2500049 ] } },
{ "type": "Feature", "properties": { "osm_id": 9306400717, "osm_type": "nodes", "opening_hours": null, "landuse": null, "denomination": null, "building": null, "leisure": null, "name": null, "historic": null, "amenity": "toilets", "religion": null }, "geometry": { "type": "Point", "coordinates": [ 55.3632379, 25.2476586 ] } },
{ "type": "Feature", "properties": { "osm_id": 11805457569, "osm_type": "nodes", "opening_hours": null, "landuse": null, "denomination": null, "building": null, "leisure": null, "name": null, "historic": null, "amenity": "toilets", "religion": null }, "geometry": { "type": "Point", "coordinates": [ 55.3436128, 25.2068672 ] } },
{ "type": "Feature", "properties": { "osm_id": 4602188400, "osm_type": "nodes", "opening_hours": null, "landuse": null, "denomination": null, "building": null, "leisure": null, "name": "جامع مردف الكبير", "historic": null, "amenity": "place_of_worship", "religion": "muslim" }, "geometry": { "type": "Point", "coordinates": [ 55.4279237, 25.2236957 ] } },
{ "type": "Feature", "properties": { "osm_id": 13809227554, "osm_type": "nodes", "opening_hours": null, "landuse": null, "denomination": null, "building": null, "leisure": null, "name": null, "historic": null, "amenity": "toilets", "religion": null }, "geometry": { "type": "Point", "coordinates": [ 55.4001919, 25.1906388 ] } },
{ "type": "Feature", "properties": { "osm_id": 5831276716, "osm_type": "nodes", "opening_hours": "24/7", "landuse": null, "denomination": null, "building": null, "leisure": null, "name": null, "historic": null, "amenity": "toilets", "religion": null }, "geometry": { "type": "Point", "coordinates": [ 55.3585917, 25.2504052 ] } },
{ "type": "Feature", "properties": { "osm_id": 1785850402, "osm_type": "nodes", "opening_hours": null, "landuse": null, "denomination": null, "building": null, "leisure": null, "name": null, "historic": null, "amenity": "place_of_worship", "religion": "muslim" }, "geometry": { "type": "Point", "coordinates": [ 55.4605495, 25.2381563 ] } },
{ "type": "Feature", "properties": { "osm_id": 4468104794, "osm_type": "nodes", "opening_hours": null, "landuse": null, "denomination": null, "building": null, "leisure": null, "name": "مسجد عائشة الفهيم", "historic": null, "amenity": "place_of_worship", "religion": "muslim" }, "geometry": { "type": "Point", "coordinates": [ 55.3953634, 25.2235651 ] } },
{ "type": "Feature", "properties": { "osm_id": 7245065985, "osm_type": "nodes", "opening_hours": null, "landuse": null, "denomination": null, "building": null, "leisure": null, "name": "مسجد الجسمي", "historic": null, "amenity": "place_of_worship", "religion": "muslim" }, "geometry": { "type": "Point", "coordinates": [ 55.3873494, 25.2194763 ] } },
{ "type": "Feature", "properties": { "osm_id": 8664103520, "osm_type": "nodes", "opening_hours": null, "landuse": null, "denomination": null, "building": null, "leisure": null, "name": null, "historic": null, "amenity": "place_of_worship", "religion": null }, "geometry": { "type": "Point", "coordinates": [ 55.4605545, 25.2381455 ] } },
{ "type": "Feature", "properties": { "osm_id": 4577243424, "osm_type": "nodes", "opening_hours": null, "landuse": null, "denomination": null, "building": null, "leisure": null, "name": null, "historic": null, "amenity": "place_of_worship", "religion": "muslim" }, "geometry": { "type": "Point", "coordinates": [ 55.4543091, 25.2351782 ] } },
{ "type": "Feature", "properties": { "osm_id": 10067115394, "osm_type": "nodes", "opening_hours": null, "landuse": "residential", "denomination": null, "building": null, "leisure": null, "name": "Hassani 23", "historic": null, "amenity": null, "religion": null }, "geometry": { "type": "Point", "coordinates": [ 55.3955036, 25.1879163 ] } },
{ "type": "Feature", "properties": { "osm_id": 1593364044, "osm_type": "nodes", "opening_hours": null, "landuse": null, "denomination": null, "building": null, "leisure": null, "name": null, "historic": null, "amenity": "place_of_worship", "religion": "muslim" }, "geometry": { "type": "Point", "coordinates": [ 55.4017918, 25.2259156 ] } },
{ "type": "Feature", "properties": { "osm_id": 4409620089, "osm_type": "nodes", "opening_hours": null, "landuse": null, "denomination": null, "building": null, "leisure": null, "name": "waha community", "historic": null, "amenity": "community_centre", "religion": null }, "geometry": { "type": "Point", "coordinates": [ 55.3759176, 25.2059031 ] } },
{ "type": "Feature", "properties": { "osm_id": 8041668586, "osm_type": "nodes", "opening_hours": "Sa-Th 10:00-17:00", "landuse": null, "denomination": null, "building": null, "leisure": null, "name": "مكتبة الراشدية", "historic": null, "amenity": "library", "religion": null }, "geometry": { "type": "Point", "coordinates": [ 55.3929931, 25.223355 ] } },
{ "type": "Feature", "properties": { "osm_id": 4426278878, "osm_type": "nodes", "opening_hours": null, "landuse": null, "denomination": null, "building": null, "leisure": null, "name": "Shorooq Community center", "historic": null, "amenity": "community_centre", "religion": null }, "geometry": { "type": "Point", "coordinates": [ 55.4288689, 25.2143757 ] } },
{ "type": "Feature", "properties": { "osm_id": 4647829793, "osm_type": "nodes", "opening_hours": null, "landuse": null, "denomination": null, "building": null, "leisure": null, "name": "Postalplus", "historic": null, "amenity": "place_of_worship", "religion": null }, "geometry": { "type": "Point", "coordinates": [ 55.3612368, 25.2314298 ] } },
{ "type": "Feature", "properties": { "osm_id": 9254060150, "osm_type": "nodes", "opening_hours": null, "landuse": null, "denomination": null, "building": null, "leisure": null, "name": null, "historic": null, "amenity": "toilets", "religion": null }, "geometry": { "type": "Point", "coordinates": [ 55.3554202, 25.2674004 ] } },
{ "type": "Feature", "properties": { "osm_id": 2473312545, "osm_type": "nodes", "opening_hours": null, "landuse": null, "denomination": null, "building": null, "leisure": null, "name": "Public Library", "historic": null, "amenity": "library", "religion": null }, "geometry": { "type": "Point", "coordinates": [ 55.3757349, 25.2661594 ] } },
{ "type": "Feature", "properties": { "osm_id": 10982999622, "osm_type": "nodes", "opening_hours": null, "landuse": null, "denomination": null, "building": null, "leisure": null, "name": null, "historic": null, "amenity": "toilets", "religion": null }, "geometry": { "type": "Point", "coordinates": [ 55.3436853, 25.2213459 ] } },
{ "type": "Feature", "properties": { "osm_id": 10982999621, "osm_type": "nodes", "opening_hours": null, "landuse": null, "denomination": null, "building": null, "leisure": null, "name": null, "historic": null, "amenity": "toilets", "religion": null }, "geometry": { "type": "Point", "coordinates": [ 55.3434794, 25.2205893 ] } },
{ "type": "Feature", "properties": { "osm_id": 3174248591, "osm_type": "nodes", "opening_hours": null, "landuse": null, "denomination": null, "building": null, "leisure": null, "name": null, "historic": null, "amenity": "toilets", "religion": null }, "geometry": { "type": "Point", "coordinates": [ 55.4563672, 25.213812 ] } },
{ "type": "Feature", "properties": { "osm_id": 3174248589, "osm_type": "nodes", "opening_hours": null, "landuse": null, "denomination": null, "building": null, "leisure": null, "name": null, "historic": null, "amenity": "toilets", "religion": null }, "geometry": { "type": "Point", "coordinates": [ 55.449422, 25.2148095 ] } },
{ "type": "Feature", "properties": { "osm_id": 6204949089, "osm_type": "nodes", "opening_hours": null, "landuse": null, "denomination": null, "building": null, "leisure": null, "name": null, "historic": null, "amenity": "toilets", "religion": null }, "geometry": { "type": "Point", "coordinates": [ 55.4466543, 25.2207001 ] } },
{ "type": "Feature", "properties": { "osm_id": 3168607427, "osm_type": "nodes", "opening_hours": null, "landuse": null, "denomination": null, "building": null, "leisure": null, "name": null, "historic": null, "amenity": "toilets", "religion": null }, "geometry": { "type": "Point", "coordinates": [ 55.4504886, 25.2192801 ] } },
{ "type": "Feature", "properties": { "osm_id": 5666252543, "osm_type": "nodes", "opening_hours": null, "landuse": null, "denomination": null, "building": null, "leisure": "park", "name": "Port Saeed Plaza", "historic": null, "amenity": null, "religion": null }, "geometry": { "type": "Point", "coordinates": [ 55.332987, 25.2548624 ] } },
{ "type": "Feature", "properties": { "osm_id": 4723270260, "osm_type": "nodes", "opening_hours": null, "landuse": null, "denomination": null, "building": null, "leisure": null, "name": null, "historic": null, "amenity": "toilets", "religion": null }, "geometry": { "type": "Point", "coordinates": [ 55.3309513, 25.2596161 ] } },
{ "type": "Feature", "properties": { "osm_id": 12505600639, "osm_type": "nodes", "opening_hours": null, "landuse": null, "denomination": null, "building": null, "leisure": null, "name": null, "historic": "memorial", "amenity": null, "religion": null }, "geometry": { "type": "Point", "coordinates": [ 55.4009472, 25.1910069 ] } },
{ "type": "Feature", "properties": { "osm_id": 3168608983, "osm_type": "nodes", "opening_hours": null, "landuse": null, "denomination": null, "building": null, "leisure": null, "name": null, "historic": null, "amenity": "toilets", "religion": null }, "geometry": { "type": "Point", "coordinates": [ 55.4484322, 25.2170236 ] } },
{ "type": "Feature", "properties": { "osm_id": 11587692769, "osm_type": "nodes", "opening_hours": null, "landuse": null, "denomination": null, "building": null, "leisure": null, "name": null, "historic": null, "amenity": "toilets", "religion": null }, "geometry": { "type": "Point", "coordinates": [ 55.3465322, 25.2476854 ] } },
{ "type": "Feature", "properties": { "osm_id": 4175867883, "osm_type": "nodes", "opening_hours": null, "landuse": null, "denomination": null, "building": null, "leisure": null, "name": "Monument", "historic": "monument", "amenity": null, "religion": null }, "geometry": { "type": "Point", "coordinates": [ 55.3359652, 25.2622546 ] } },
{ "type": "Feature", "properties": { "osm_id": 1935187639, "osm_type": "nodes", "opening_hours": null, "landuse": null, "denomination": "sunni", "building": null, "leisure": null, "name": "مسجد جمعة", "historic": null, "amenity": "place_of_worship", "religion": "muslim" }, "geometry": { "type": "Point", "coordinates": [ 55.4522104, 25.2662213 ] } },
{ "type": "Feature", "properties": { "osm_id": 3168489359, "osm_type": "nodes", "opening_hours": null, "landuse": null, "denomination": null, "building": null, "leisure": null, "name": "Toilets", "historic": null, "amenity": "toilets", "religion": null }, "geometry": { "type": "Point", "coordinates": [ 55.4547211, 25.2152903 ] } },
{ "type": "Feature", "properties": { "osm_id": 12505600635, "osm_type": "nodes", "opening_hours": null, "landuse": null, "denomination": null, "building": null, "leisure": null, "name": null, "historic": null, "amenity": "toilets", "religion": null }, "geometry": { "type": "Point", "coordinates": [ 55.4010617, 25.1908073 ] } },
{ "type": "Feature", "properties": { "osm_id": 12505600656, "osm_type": "nodes", "opening_hours": null, "landuse": null, "denomination": null, "building": null, "leisure": null, "name": null, "historic": null, "amenity": "toilets", "religion": null }, "geometry": { "type": "Point", "coordinates": [ 55.4006668, 25.1904604 ] } },
{ "type": "Feature", "properties": { "osm_id": 12505600657, "osm_type": "nodes", "opening_hours": null, "landuse": null, "denomination": null, "building": null, "leisure": null, "name": null, "historic": null, "amenity": "toilets", "religion": null }, "geometry": { "type": "Point", "coordinates": [ 55.4008214, 25.1911271 ] } },
{ "type": "Feature", "properties": { "osm_id": 10982999620, "osm_type": "nodes", "opening_hours": null, "landuse": null, "denomination": null, "building": null, "leisure": null, "name": null, "historic": null, "amenity": "toilets", "religion": null }, "geometry": { "type": "Point", "coordinates": [ 55.3440717, 25.2204546 ] } },
{ "type": "Feature", "properties": { "osm_id": 13704784136, "osm_type": "nodes", "opening_hours": null, "landuse": null, "denomination": null, "building": null, "leisure": null, "name": null, "historic": null, "amenity": "toilets", "religion": null }, "geometry": { "type": "Point", "coordinates": [ 55.4550903, 25.217403 ] } },
{ "type": "Feature", "properties": { "osm_id": 10982999623, "osm_type": "nodes", "opening_hours": null, "landuse": null, "denomination": null, "building": null, "leisure": null, "name": null, "historic": null, "amenity": "toilets", "religion": null }, "geometry": { "type": "Point", "coordinates": [ 55.3443537, 25.2212599 ] } },
{ "type": "Feature", "properties": { "osm_id": 13304614201, "osm_type": "nodes", "opening_hours": null, "landuse": null, "denomination": null, "building": null, "leisure": "park", "name": "Oud Al Muteena Park 1", "historic": null, "amenity": null, "religion": null }, "geometry": { "type": "Point", "coordinates": [ 55.4499038, 25.2656541 ] } },
{ "type": "Feature", "properties": { "osm_id": 10550747754, "osm_type": "nodes", "opening_hours": null, "landuse": null, "denomination": null, "building": null, "leisure": null, "name": null, "historic": null, "amenity": "toilets", "religion": null }, "geometry": { "type": "Point", "coordinates": [ 55.4738188, 25.2344015 ] } },
{ "type": "Feature", "properties": { "osm_id": 12803177750, "osm_type": "nodes", "opening_hours": null, "landuse": null, "denomination": null, "building": null, "leisure": null, "name": null, "historic": null, "amenity": "toilets", "religion": null }, "geometry": { "type": "Point", "coordinates": [ 55.3651892, 25.2464077 ] } },
{ "type": "Feature", "properties": { "osm_id": 12971339802, "osm_type": "nodes", "opening_hours": null, "landuse": null, "denomination": null, "building": null, "leisure": null, "name": null, "historic": null, "amenity": "place_of_worship", "religion": null }, "geometry": { "type": "Point", "coordinates": [ 55.3592793, 25.235051 ] } },
{ "type": "Feature", "properties": { "osm_id": 12503940950, "osm_type": "nodes", "opening_hours": null, "landuse": null, "denomination": null, "building": null, "leisure": null, "name": null, "historic": null, "amenity": "place_of_worship", "religion": "muslim" }, "geometry": { "type": "Point", "coordinates": [ 55.3595711, 25.2394228 ] } },
{ "type": "Feature", "properties": { "osm_id": 12534781901, "osm_type": "nodes", "opening_hours": null, "landuse": null, "denomination": null, "building": null, "leisure": null, "name": null, "historic": null, "amenity": "toilets", "religion": null }, "geometry": { "type": "Point", "coordinates": [ 55.4740016, 25.2345382 ] } },
{ "type": "Feature", "properties": { "osm_id": 1802940437, "osm_type": "nodes", "opening_hours": null, "landuse": null, "denomination": null, "building": null, "leisure": null, "name": null, "historic": null, "amenity": "place_of_worship", "religion": "muslim" }, "geometry": { "type": "Point", "coordinates": [ 55.4685761, 25.2561653 ] } }
]
}
